[{"OBJECT_NAME":"ICEYE-X7","OBJECT_ID":"2020-068L","EPOCH":"2026-03-09T22:52:28.702272","MEAN_MOTION":15.29152508,"ECCENTRICITY":0.00068409,"INCLINATION":97.7412,"RA_OF_ASC_NODE":31.2076,"ARG_OF_PERICENTER":332.3045,"MEAN_ANOMALY":27.7829,"EPHEMERIS_TYPE":0,"CLASSIFICATION_TYPE":"U","NORAD_CAT_ID":46496,"ELEMENT_SET_NO":999,"REV_AT_EPOCH":29961,"BSTAR":0.0005654802,"MEAN_MOTION_DOT":0.00015947,"MEAN_MOTION_DDOT":0},{"OBJECT_NAME":"STARLINK-32282","OBJECT_ID":"2024-158S","EPOCH":"2026-03-09T22:58:32.136960","MEAN_MOTION":15.30172639,"ECCENTRICITY":0.000109,"INCLINATION":53.1604,"RA_OF_ASC_NODE":64.1824,"ARG_OF_PERICENTER":110.0619,"MEAN_ANOMALY":250.0499,"EPHEMERIS_TYPE":0,"CLASSIFICATION_TYPE":"U","NORAD_CAT_ID":61006,"ELEMENT_SET_NO":999,"REV_AT_EPOCH":8569,"BSTAR":-7.5228778e-5,"MEAN_MOTION_DOT":-2.584e-5,"MEAN_MOTION_DDOT":0}]
